{"type": "FeatureCollection", "features": [ {"type": "Feature", "properties": {"norad_id": 66685, "name": "TRANSPORTER-15 V", "group": "last-30-days", "lat": 56.69258083133427, "lon": -102.4183248467895, "alt_km": 510.75978819995817, "timestamp": "2025-12-20T11:30:27.104764+00:00", "meta": {"OBJECT_NAME": "TRANSPORTER-15 V", "OBJECT_ID": "2025-276V", "EPOCH": "2025-12-19T14:23:40.254144", "MEAN_MOTION": 15.17380939, "ECCENTRICITY": 0.0003974, "INCLINATION": 97.4431, "RA_OF_ASC_NODE": 65.2408, "ARG_OF_PERICENTER": 278.7845, "MEAN_ANOMALY": 81.2938, "EPHEMERIS_TYPE": 0, "CLASSIFICATION_TYPE": "U", "NORAD_CAT_ID": 66685, "ELEMENT_SET_NO": 999, "REV_AT_EPOCH": 316, "BSTAR": 0.00049331, "MEAN_MOTION_DOT": 9.795e-05, "MEAN_MOTION_DDOT": 0}, "tle": {"line1": "1 66685U 25276V   25353.59977146  .00009795  00000+0  49331-3 0  9991", "line2": "2 66685  97.4431  65.2408 0003974 278.7845  81.2938 15.17380939  3167"}}, "geometry": {"type": "Point", "coordinates": [-102.4183248467895, 56.69258083133427]}}, {"type": "Feature", "properties": {"norad_id": 66686, "name": "TRANSPORTER-15 W", "group": "last-30-days", "lat": 71.9297196394225, "lon": -90.25961620798059, "alt_km": 510.4285435402062, "timestamp": "2025-12-20T11:30:27.104774+00:00", "meta": {"OBJECT_NAME": "TRANSPORTER-15 W", "OBJECT_ID": "2025-276W", "EPOCH": "2025-12-20T03:07:26.446944", "MEAN_MOTION": 15.16972854, "ECCENTRICITY": 0.0004001, "INCLINATION": 97.4465, "RA_OF_ASC_NODE": 65.7648, "ARG_OF_PERICENTER": 256.2752, "MEAN_ANOMALY": 103.8036, "EPHEMERIS_TYPE": 0, "CLASSIFICATION_TYPE": "U", "NORAD_CAT_ID": 66686, "ELEMENT_SET_NO": 999, "REV_AT_EPOCH": 324, "BSTAR": 0.00026846, "MEAN_MOTION_DOT": 5.235e-05, "MEAN_MOTION_DDOT": 0}, "tle": {"line1": "1 66686U 25276W   25354.13016721  .00005235  00000+0  26846-3 0  9997", "line2": "2 66686  97.4465  65.7648 0004001 256.2752 103.8036 15.16972854  3247"}}, "geometry": {"type": "Point", "coordinates": [-90.25961620798059, 71.9297196394225]}}, {"type": "Feature", "properties": {"norad_id": 66687, "name": "TRANSPORTER-15 X", "group": "last-30-days", "lat": 77.51503803686215, "lon": 29.907660000408033, "alt_km": 503.12697229453534, "timestamp": "2025-12-20T11:30:27.104786+00:00", "meta": {"OBJECT_NAME": "TRANSPORTER-15 X", "OBJECT_ID": "2025-276X", "EPOCH": "2025-12-20T03:14:22.467264", "MEAN_MOTION": 15.16636652, "ECCENTRICITY": 0.0008517, "INCLINATION": 97.4399, "RA_OF_ASC_NODE": 65.7392, "ARG_OF_PERICENTER": 63.9348, "MEAN_ANOMALY": 296.276, "EPHEMERIS_TYPE": 0, "CLASSIFICATION_TYPE": "U", "NORAD_CAT_ID": 66687, "ELEMENT_SET_NO": 999, "REV_AT_EPOCH": 324, "BSTAR": 0.00043002, "MEAN_MOTION_DOT": 8.354e-05, "MEAN_MOTION_DDOT": 0}, "tle": {"line1": "1 66687U 25276X   25354.13498226  .00008354  00000+0  43002-3 0  9990", "line2": "2 66687  97.4399  65.7392 0008517  63.9348 296.2760 15.16636652  3244"}}, "geometry": {"type": "Point", "coordinates": [29.907660000408033, 77.51503803686215]}}, {"type": "Feature", "properties": {"norad_id": 66688, "name": "TRANSPORTER-15 Y", "group": "last-30-days", "lat": 67.91176729989682, "lon": -95.0996848051603, "alt_km": 510.2907903437281, "timestamp": "2025-12-20T11:30:27.104796+00:00", "meta": {"OBJECT_NAME": "TRANSPORTER-15 Y", "OBJECT_ID": "2025-276Y", "EPOCH": "2025-12-20T03:06:19.340064", "MEAN_MOTION": 15.17044694, "ECCENTRICITY": 0.000357, "INCLINATION": 97.4444, "RA_OF_ASC_NODE": 65.7602, "ARG_OF_PERICENTER": 261.0045, "MEAN_ANOMALY": 99.0785, "EPHEMERIS_TYPE": 0, "CLASSIFICATION_TYPE": "U", "NORAD_CAT_ID": 66688, "ELEMENT_SET_NO": 999, "REV_AT_EPOCH": 324, "BSTAR": 0.00025729, "MEAN_MOTION_DOT": 5.025e-05, "MEAN_MOTION_DDOT": 0}, "tle": {"line1": "1 66688U 25276Y   25354.12939051  .00005025  00000+0  25729-3 0  9994", "line2": "2 66688  97.4444  65.7602 0003570 261.0045  99.0785 15.17044694  3245"}}, "geometry": {"type": "Point", "coordinates": [-95.0996848051603, 67.91176729989682]}}, {"type": "Feature", "properties": {"norad_id": 66689, "name": "TRANSPORTER-15 Z", "group": "last-30-days", "lat": 51.33439437520299, "lon": -104.48922537812871, "alt_km": 510.52692796775045, "timestamp": "2025-12-20T11:30:27.104806+00:00", "meta": {"OBJECT_NAME": "TRANSPORTER-15 Z", "OBJECT_ID": "2025-276Z", "EPOCH": "2025-12-19T14:22:03.787680", "MEAN_MOTION": 15.17181025, "ECCENTRICITY": 0.0001369, "INCLINATION": 97.4426, "RA_OF_ASC_NODE": 65.243, "ARG_OF_PERICENTER": 288.6889, "MEAN_ANOMALY": 71.4196, "EPHEMERIS_TYPE": 0, "CLASSIFICATION_TYPE": "U", "NORAD_CAT_ID": 66689, "ELEMENT_SET_NO": 999, "REV_AT_EPOCH": 316, "BSTAR": 0.00010187, "MEAN_MOTION_DOT": 1.956e-05, "MEAN_MOTION_DDOT": 0}, "tle": {"line1": "1 66689U 25276Z   25353.59865495  .00001956  00000+0  10187-3 0  9996", "line2": "2 66689  97.4426  65.2430 0001369 288.6889  71.4196 15.17181025  3166"}}, "geometry": {"type": "Point", "coordinates": [-104.48922537812871, 51.33439437520299]}}, {"type": "Feature", "properties": {"norad_id": 66690, "name": "TRANSPORTER-15 AA", "group": "last-30-days", "lat": 68.06104809516029, "lon": -94.9726203703139, "alt_km": 510.211200044012, "timestamp": "2025-12-20T11:30:27.104816+00:00", "meta": {"OBJECT_NAME": "TRANSPORTER-15 AA", "OBJECT_ID": "2025-276AA", "EPOCH": "2025-12-20T01:31:22.789344", "MEAN_MOTION": 15.17032749, "ECCENTRICITY": 0.0003269, "INCLINATION": 97.4408, "RA_OF_ASC_NODE": 65.6855, "ARG_OF_PERICENTER": 265.4105, "MEAN_ANOMALY": 94.6755, "EPHEMERIS_TYPE": 0, "CLASSIFICATION_TYPE": "U", "NORAD_CAT_ID": 66690, "ELEMENT_SET_NO": 999, "REV_AT_EPOCH": 323, "BSTAR": 0.00037156, "MEAN_MOTION_DOT": 7.285e-05, "MEAN_MOTION_DDOT": 0}, "tle": {"line1": "1 66690U 25276AA  25354.06345821  .00007285  00000+0  37156-3 0  9993", "line2": "2 66690  97.4408  65.6855 0003269 265.4105  94.6755 15.17032749  3232"}}, "geometry": {"type": "Point", "coordinates": [-94.9726203703139, 68.06104809516029]}}, {"type": "Feature", "properties": {"norad_id": 66691, "name": "TRANSPORTER-15 AB", "group": "last-30-days", "lat": 59.489232402699145, "lon": -101.07870399531599, "alt_km": 510.3851407620359, "timestamp": "2025-12-20T11:30:27.104828+00:00", "meta": {"OBJECT_NAME": "TRANSPORTER-15 AB", "OBJECT_ID": "2025-276AB", "EPOCH": "2025-12-19T23:54:07.570080", "MEAN_MOTION": 15.17242522, "ECCENTRICITY": 0.0003619, "INCLINATION": 97.443, "RA_OF_ASC_NODE": 65.629, "ARG_OF_PERICENTER": 262.8846, "MEAN_ANOMALY": 97.1976, "EPHEMERIS_TYPE": 0, "CLASSIFICATION_TYPE": "U", "NORAD_CAT_ID": 66691, "ELEMENT_SET_NO": 999, "REV_AT_EPOCH": 322, "BSTAR": 0.00036926, "MEAN_MOTION_DOT": 7.283e-05, "MEAN_MOTION_DDOT": 0}, "tle": {"line1": "1 66691U 25276AB  25353.99592095  .00007283  00000+0  36926-3 0  9994", "line2": "2 66691  97.4430  65.6290 0003619 262.8846  97.1976 15.17242522  3227"}}, "geometry": {"type": "Point", "coordinates": [-101.07870399531599, 59.489232402699145]}}, {"type": "Feature", "properties": {"norad_id": 66692, "name": "TRANSPORTER-15 AC", "group": "last-30-days", "lat": 43.77014889142781, "lon": -106.69088924004124, "alt_km": 511.2583986205573, "timestamp": "2025-12-20T11:30:27.104839+00:00", "meta": {"OBJECT_NAME": "TRANSPORTER-15 AC", "OBJECT_ID": "2025-276AC", "EPOCH": "2025-12-19T14:20:11.028768", "MEAN_MOTION": 15.17362366, "ECCENTRICITY": 0.0001801, "INCLINATION": 97.4431, "RA_OF_ASC_NODE": 65.2479, "ARG_OF_PERICENTER": 289.3043, "MEAN_ANOMALY": 70.7996, "EPHEMERIS_TYPE": 0, "CLASSIFICATION_TYPE": "U", "NORAD_CAT_ID": 66692, "ELEMENT_SET_NO": 999, "REV_AT_EPOCH": 316, "BSTAR": 0.00022003, "MEAN_MOTION_DOT": 4.326e-05, "MEAN_MOTION_DDOT": 0}, "tle": {"line1": "1 66692U 25276AC  25353.59734987  .00004326  00000+0  22003-3 0  9995", "line2": "2 66692  97.4431  65.2479 0001801 289.3043  70.7996 15.17362366  3169"}}, "geometry": {"type": "Point", "coordinates": [-106.69088924004124, 43.77014889142781]}}, {"type": "Feature", "properties": {"norad_id": 66693, "name": "TRANSPORTER-15 AD", "group": "last-30-days", "lat": 45.74339313217094, "lon": -106.19841586230648, "alt_km": 511.34443067046595, "timestamp": "2025-12-20T11:30:27.104849+00:00", "meta": {"OBJECT_NAME": "TRANSPORTER-15 AD", "OBJECT_ID": "2025-276AD", "EPOCH": "2025-12-20T04:35:24.550368", "MEAN_MOTION": 15.17534825, "ECCENTRICITY": 0.0003199, "INCLINATION": 97.4384, "RA_OF_ASC_NODE": 65.8128, "ARG_OF_PERICENTER": 288.2588, "MEAN_ANOMALY": 71.8298, "EPHEMERIS_TYPE": 0, "CLASSIFICATION_TYPE": "U", "NORAD_CAT_ID": 66693, "ELEMENT_SET_NO": 999, "REV_AT_EPOCH": 325, "BSTAR": 0.00046232, "MEAN_MOTION_DOT": 9.215e-05, "MEAN_MOTION_DDOT": 0}, "tle": {"line1": "1 66693U 25276AD  25354.19125637  .00009215  00000+0  46232-3 0  9991", "line2": "2 66693  97.4384  65.8128 0003199 288.2588  71.8298 15.17534825  3256"}}, "geometry": {"type": "Point", "coordinates": [-106.19841586230648, 45.74339313217094]}}, {"type": "Feature", "properties": {"norad_id": 66694, "name": "TRANSPORTER-15 AE", "group": "last-30-days", "lat": 35.80042401334909, "lon": -108.47671831031089, "alt_km": 511.57168975878176, "timestamp": "2025-12-20T11:30:27.104859+00:00", "meta": {"OBJECT_NAME": "TRANSPORTER-15 AE", "OBJECT_ID": "2025-276AE", "EPOCH": "2025-12-20T04:32:45.208032", "MEAN_MOTION": 15.17519057, "ECCENTRICITY": 0.0001283, "INCLINATION": 97.4422, "RA_OF_ASC_NODE": 65.8285, "ARG_OF_PERICENTER": 279.5897, "MEAN_ANOMALY": 80.5192, "EPHEMERIS_TYPE": 0, "CLASSIFICATION_TYPE": "U", "NORAD_CAT_ID": 66694, "ELEMENT_SET_NO": 999, "REV_AT_EPOCH": 325, "BSTAR": 0.00033901, "MEAN_MOTION_DOT": 6.733e-05, "MEAN_MOTION_DDOT": 0}, "tle": {"line1": "1 66694U 25276AE  25354.18941213  .00006733  00000+0  33901-3 0  9998", "line2": "2 66694  97.4422  65.8285 0001283 279.5897  80.5192 15.17519057  3252"}}, "geometry": {"type": "Point", "coordinates": [-108.47671831031089, 35.80042401334909]}}]}